{
 "generated_at": "2026-07-16T07:22:15Z",
 "sources": [
  {
   "name": "CelesTrak",
   "url": "https://celestrak.org/NORAD/elements/",
   "license": "frei verfügbar; Attribution. Ursprünglich USSPACECOM/Space-Track."
  },
  {
   "name": "GCAT (J. McDowell, planet4589.org)",
   "url": "https://planet4589.org/space/gcat/",
   "license": "CC-BY 4.0"
  }
 ],
 "satellites": [
  {
   "norad": 41790,
   "name": "SCATSAT 1",
   "intl": "2016-059H",
   "group": "resource",
   "gcat": {
    "class": null,
    "category": null,
    "owner": null,
    "state": null
   },
   "omm": {
    "OBJECT_NAME": "SCATSAT 1",
    "OBJECT_ID": "2016-059H",
    "EPOCH": "2026-07-15T18:03:56.068128",
    "MEAN_MOTION": 14.79588015,
    "ECCENTRICITY": 0.00552527,
    "INCLINATION": 98.1178,
    "RA_OF_ASC_NODE": 260.8119,
    "ARG_OF_PERICENTER": 154.7791,
    "MEAN_ANOMALY": 205.6137,
    "EPHEMERIS_TYPE": 0,
    "CLASSIFICATION_TYPE": "U",
    "NORAD_CAT_ID": 41790,
    "ELEMENT_SET_NO": 999,
    "REV_AT_EPOCH": 10581,
    "BSTAR": 0.000090536768,
    "MEAN_MOTION_DOT": 0.00000639,
    "MEAN_MOTION_DDOT": 0
   }
  },
  {
   "norad": 22490,
   "name": "SCD 1",
   "intl": "1993-009B",
   "group": "resource",
   "gcat": {
    "class": "C",
    "category": "COM",
    "owner": "INPE",
    "state": "BR"
   },
   "omm": {
    "OBJECT_NAME": "SCD 1",
    "OBJECT_ID": "1993-009B",
    "EPOCH": "2026-07-15T22:52:04.641600",
    "MEAN_MOTION": 14.46128812,
    "ECCENTRICITY": 0.00420813,
    "INCLINATION": 24.9705,
    "RA_OF_ASC_NODE": 29.9632,
    "ARG_OF_PERICENTER": 82.5333,
    "MEAN_ANOMALY": 35.7433,
    "EPHEMERIS_TYPE": 0,
    "CLASSIFICATION_TYPE": "U",
    "NORAD_CAT_ID": 22490,
    "ELEMENT_SET_NO": 999,
    "REV_AT_EPOCH": 76528,
    "BSTAR": 0.000029432321,
    "MEAN_MOTION_DOT": 0.00000293,
    "MEAN_MOTION_DDOT": 0
   }
  },
  {
   "norad": 25504,
   "name": "SCD 2",
   "intl": "1998-060A",
   "group": "resource",
   "gcat": {
    "class": "C",
    "category": "COM",
    "owner": "INPE",
    "state": "BR"
   },
   "omm": {
    "OBJECT_NAME": "SCD 2",
    "OBJECT_ID": "1998-060A",
    "EPOCH": "2026-07-15T06:17:14.481888",
    "MEAN_MOTION": 14.45534804,
    "ECCENTRICITY": 0.00169714,
    "INCLINATION": 24.9945,
    "RA_OF_ASC_NODE": 259.025,
    "ARG_OF_PERICENTER": 60.2756,
    "MEAN_ANOMALY": 348.6331,
    "EPHEMERIS_TYPE": 0,
    "CLASSIFICATION_TYPE": "U",
    "NORAD_CAT_ID": 25504,
    "ELEMENT_SET_NO": 999,
    "REV_AT_EPOCH": 46439,
    "BSTAR": 0.000025830958,
    "MEAN_MOTION_DOT": 0.00000274,
    "MEAN_MOTION_DDOT": 0
   }
  },
  {
   "norad": 39634,
   "name": "SENTINEL-1A",
   "intl": "2014-016A",
   "group": "resource",
   "gcat": {
    "class": null,
    "category": null,
    "owner": null,
    "state": null
   },
   "omm": {
    "OBJECT_NAME": "SENTINEL-1A",
    "OBJECT_ID": "2014-016A",
    "EPOCH": "2026-07-15T23:04:56.178048",
    "MEAN_MOTION": 14.59195854,
    "ECCENTRICITY": 0.00014046,
    "INCLINATION": 98.1768,
    "RA_OF_ASC_NODE": 204.0743,
    "ARG_OF_PERICENTER": 86.3602,
    "MEAN_ANOMALY": 273.7758,
    "EPHEMERIS_TYPE": 0,
    "CLASSIFICATION_TYPE": "U",
    "NORAD_CAT_ID": 39634,
    "ELEMENT_SET_NO": 999,
    "REV_AT_EPOCH": 65421,
    "BSTAR": -0.000002052454,
    "MEAN_MOTION_DOT": -5.5e-7,
    "MEAN_MOTION_DDOT": 0
   }
  },
  {
   "norad": 62261,
   "name": "SENTINEL-1C",
   "intl": "2024-235A",
   "group": "sar",
   "gcat": {
    "class": "C",
    "category": "IMG-R",
    "owner": "COPERN/ESA",
    "state": "I-EU"
   },
   "omm": {
    "OBJECT_NAME": "SENTINEL-1C",
    "OBJECT_ID": "2024-235A",
    "EPOCH": "2026-07-16T00:01:40.686240",
    "MEAN_MOTION": 14.59198044,
    "ECCENTRICITY": 0.00013887,
    "INCLINATION": 98.1824,
    "RA_OF_ASC_NODE": 203.9003,
    "ARG_OF_PERICENTER": 90.2275,
    "MEAN_ANOMALY": 269.9084,
    "EPHEMERIS_TYPE": 0,
    "CLASSIFICATION_TYPE": "U",
    "NORAD_CAT_ID": 62261,
    "ELEMENT_SET_NO": 999,
    "REV_AT_EPOCH": 8561,
    "BSTAR": 0.000026953996,
    "MEAN_MOTION_DOT": 8.1e-7,
    "MEAN_MOTION_DDOT": 0
   }
  },
  {
   "norad": 66315,
   "name": "SENTINEL-1D",
   "intl": "2025-251A",
   "group": "sar",
   "gcat": {
    "class": "C",
    "category": "IMG-R",
    "owner": "COPERN/ESA",
    "state": "I-EU"
   },
   "omm": {
    "OBJECT_NAME": "SENTINEL-1D",
    "OBJECT_ID": "2025-251A",
    "EPOCH": "2026-07-15T21:33:47.043360",
    "MEAN_MOTION": 14.59197076,
    "ECCENTRICITY": 0.00013215,
    "INCLINATION": 98.1841,
    "RA_OF_ASC_NODE": 203.8543,
    "ARG_OF_PERICENTER": 88.6998,
    "MEAN_ANOMALY": 271.4353,
    "EPHEMERIS_TYPE": 0,
    "CLASSIFICATION_TYPE": "U",
    "NORAD_CAT_ID": 66315,
    "ELEMENT_SET_NO": 999,
    "REV_AT_EPOCH": 3691,
    "BSTAR": -0.00000662125,
    "MEAN_MOTION_DOT": -7.7e-7,
    "MEAN_MOTION_DDOT": 0
   }
  },
  {
   "norad": 40697,
   "name": "SENTINEL-2A",
   "intl": "2015-028A",
   "group": "resource",
   "gcat": {
    "class": "C",
    "category": "IMG",
    "owner": "COPERN/ESA",
    "state": "I-EU"
   },
   "omm": {
    "OBJECT_NAME": "SENTINEL-2A",
    "OBJECT_ID": "2015-028A",
    "EPOCH": "2026-07-15T22:56:34.749600",
    "MEAN_MOTION": 14.30814211,
    "ECCENTRICITY": 0.00012798,
    "INCLINATION": 98.5683,
    "RA_OF_ASC_NODE": 271.3977,
    "ARG_OF_PERICENTER": 94.7392,
    "MEAN_ANOMALY": 265.3937,
    "EPHEMERIS_TYPE": 0,
    "CLASSIFICATION_TYPE": "U",
    "NORAD_CAT_ID": 40697,
    "ELEMENT_SET_NO": 999,
    "REV_AT_EPOCH": 57784,
    "BSTAR": 0.000005846293,
    "MEAN_MOTION_DOT": -2.8e-7,
    "MEAN_MOTION_DDOT": 0
   }
  },
  {
   "norad": 42063,
   "name": "SENTINEL-2B",
   "intl": "2017-013A",
   "group": "resource",
   "gcat": {
    "class": "C",
    "category": "IMG",
    "owner": "COPERN/ESA",
    "state": "I-EU"
   },
   "omm": {
    "OBJECT_NAME": "SENTINEL-2B",
    "OBJECT_ID": "2017-013A",
    "EPOCH": "2026-07-15T22:46:13.581120",
    "MEAN_MOTION": 14.30815055,
    "ECCENTRICITY": 0.00012036,
    "INCLINATION": 98.5691,
    "RA_OF_ASC_NODE": 271.3159,
    "ARG_OF_PERICENTER": 89.8567,
    "MEAN_ANOMALY": 270.2753,
    "EPHEMERIS_TYPE": 0,
    "CLASSIFICATION_TYPE": "U",
    "NORAD_CAT_ID": 42063,
    "ELEMENT_SET_NO": 999,
    "REV_AT_EPOCH": 48875,
    "BSTAR": 0.000022101779,
    "MEAN_MOTION_DOT": 1.4e-7,
    "MEAN_MOTION_DDOT": 0
   }
  },
  {
   "norad": 60989,
   "name": "SENTINEL-2C",
   "intl": "2024-157A",
   "group": "resource",
   "gcat": {
    "class": "C",
    "category": "IMG",
    "owner": "COPERN/ESA",
    "state": "I-EU"
   },
   "omm": {
    "OBJECT_NAME": "SENTINEL-2C",
    "OBJECT_ID": "2024-157A",
    "EPOCH": "2026-07-15T18:34:29.964288",
    "MEAN_MOTION": 14.30815758,
    "ECCENTRICITY": 0.00009654,
    "INCLINATION": 98.5684,
    "RA_OF_ASC_NODE": 271.1502,
    "ARG_OF_PERICENTER": 104.1193,
    "MEAN_ANOMALY": 256.0097,
    "EPHEMERIS_TYPE": 0,
    "CLASSIFICATION_TYPE": "U",
    "NORAD_CAT_ID": 60989,
    "ELEMENT_SET_NO": 999,
    "REV_AT_EPOCH": 9707,
    "BSTAR": 0.000033757852,
    "MEAN_MOTION_DOT": 4.5e-7,
    "MEAN_MOTION_DDOT": 0
   }
  },
  {
   "norad": 41335,
   "name": "SENTINEL-3A",
   "intl": "2016-011A",
   "group": "resource",
   "gcat": {
    "class": "C",
    "category": "IMG",
    "owner": "COPERN/ESA",
    "state": "I-EU"
   },
   "omm": {
    "OBJECT_NAME": "SENTINEL-3A",
    "OBJECT_ID": "2016-011A",
    "EPOCH": "2026-07-15T21:35:31.818912",
    "MEAN_MOTION": 14.26739869,
    "ECCENTRICITY": 0.00013578,
    "INCLINATION": 98.6237,
    "RA_OF_ASC_NODE": 263.8689,
    "ARG_OF_PERICENTER": 89.6135,
    "MEAN_ANOMALY": 270.5201,
    "EPHEMERIS_TYPE": 0,
    "CLASSIFICATION_TYPE": "U",
    "NORAD_CAT_ID": 41335,
    "ELEMENT_SET_NO": 999,
    "REV_AT_EPOCH": 54215,
    "BSTAR": 0.000037625562,
    "MEAN_MOTION_DOT": 4.7e-7,
    "MEAN_MOTION_DDOT": 0
   }
  }
 ]
}
